NORAD_CAT_ID,OBJECT_NAME,OBJECT_TYPE,EPOCH,MEAN_MOTION,ECCENTRICITY,INCLINATION,RA_OF_ASC_NODE,ARG_OF_PERICENTER,MEAN_ANOMALY,BSTAR,MEAN_MOTION_DOT,MEAN_MOTION_DDOT,TLE_LINE0,TLE_LINE1,TLE_LINE2,SEMIMAJOR_AXIS,PERIOD,APOGEE,PERIGEE,DECAYED
56771.0,STARLINK-6339,PAYLOAD,2023-08-19 00:20:48,15.69902366,0.0005147,69.9992,189.1178,296.6747,63.3922,-4.7406e-05,-5.907e-05,0.0,0 STARLINK-6339,1 56771U 23078E   23231.01444692 -.00005907  00000-0 -47406-4 0  9995,2 56771  69.9992 189.1178 0005147 296.6747  63.3922 15.69902366 12820,6737.313,91.725,362.646,355.711,0.0
56771.0,STARLINK-6339,PAYLOAD,2023-08-19 06:27:48,15.69913868,0.0003467,69.9995,188.4001,275.9068,84.1732,-1.957e-05,-2.564e-05,0.0,0 STARLINK-6339,1 56771U 23078E   23231.26930702 -.00002564  00000-0 -19570-4 0  9991,2 56771  69.9995 188.4001 0003467 275.9068  84.1732 15.69913868 12862,6737.28,91.725,361.481,356.81,0.0
56771.0,STARLINK-6339,PAYLOAD,2023-08-20 00:48:49,15.69927335,0.0003912,69.9986,186.2493,275.3595,84.7154,2.7603e-05,3.108e-05,0.0,0 STARLINK-6339,1 56771U 23078E   23232.03390479  .00003108  00000-0  27603-4 0  9997,2 56771  69.9986 186.2493 0003912 275.3595  84.7154 15.69927335 12988,6737.242,91.724,361.743,356.471,0.0
56771.0,STARLINK-6339,PAYLOAD,2023-08-21 02:48:36,15.69928582,0.0003144,69.9993,183.2049,277.2498,82.834,4.9549e-06,3.83e-06,0.0,0 STARLINK-6339,1 56771U 23078E   23233.11708805  .00000383  00000-0  49549-5 0  9999,2 56771  69.9993 183.2049 0003144 277.2498  82.8340 15.69928582 13151,6737.238,91.724,361.222,356.985,0.0
56771.0,STARLINK-6339,PAYLOAD,2023-08-21 05:52:07,15.69914827,0.0003357,69.9992,182.8469,276.5021,83.5793,2.4714e-05,2.759e-05,0.0,0 STARLINK-6339,1 56771U 23078E   23233.24452866  .00002759  00000-0  24714-4 0  9991,2 56771  69.9992 182.8469 0003357 276.5021  83.5793 15.69914827 13170,6737.278,91.725,361.404,356.881,0.0
56771.0,STARLINK-6339,PAYLOAD,2023-08-22 00:13:08,15.69931668,0.0003476,69.9997,180.6967,275.5028,84.5771,2.2648e-05,2.512e-05,0.0,0 STARLINK-6339,1 56771U 23078E   23234.00912065  .00002512  00000-0  22648-4 0  9999,2 56771  69.9997 180.6967 0003476 275.5028  84.5771 15.69931668 13294,6737.229,91.724,361.436,356.753,0.0
56771.0,STARLINK-6339,PAYLOAD,2023-08-22 07:51:54,15.69922948,0.0003347,69.9999,179.8023,270.7437,89.3375,6.5338e-06,5.73e-06,0.0,0 STARLINK-6339,1 56771U 23078E   23234.32771003  .00000573  00000-0  65338-5 0  9998,2 56771  69.9999 179.8023 0003347 270.7437  89.3375 15.69922948 13347,6737.254,91.724,361.374,356.864,0.0
56771.0,STARLINK-6339,PAYLOAD,2023-08-22 23:09:24,15.69933633,0.000371,69.9981,178.01,276.8595,83.2179,2.704e-05,3.041e-05,0.0,0 STARLINK-6339,1 56771U 23078E   23234.96486924  .00003041  00000-0  27040-4 0  9993,2 56771  69.9981 178.0100 0003710 276.8595  83.2179 15.69933633 13440,6737.224,91.724,361.588,356.589,0.0
56771.0,STARLINK-6339,PAYLOAD,2023-08-23 06:48:11,15.69912323,0.0003288,69.9989,177.1146,266.1491,93.9329,-1.1481e-05,-1.592e-05,0.0,0 STARLINK-6339,1 56771U 23078E   23235.28346548 -.00001592  00000-0 -11481-4 0  9999,2 56771  69.9989 177.1146 0003288 266.1491  93.9329 15.69912323 13498,6737.285,91.725,361.365,356.935,0.0
56771.0,STARLINK-6339,PAYLOAD,2023-08-24 19:30:13,15.69927966,0.0003904,69.9992,172.8159,264.5006,95.5744,1.2326e-05,1.27e-05,0.0,0 STARLINK-6339,1 56771U 23078E   23236.81265857  .00001270  00000-0  12326-4 0  9992,2 56771  69.9992 172.8159 0003904 264.5006  95.5744 15.69927966 13732,6737.24,91.724,361.735,356.475,0.0
56771.0,STARLINK-6339,PAYLOAD,2023-08-25 04:40:44,15.69923161,0.0003736,69.9997,171.7414,258.4523,101.6253,9.4566e-06,9.24e-06,0.0,0 STARLINK-6339,1 56771U 23078E   23237.19496092  .00000924  00000-0  94566-5 0  9993,2 56771  69.9997 171.7414 0003736 258.4523 101.6253 15.69923161 13533,6737.254,91.724,361.636,356.602,0.0
56771.0,STARLINK-6339,PAYLOAD,2023-08-25 23:01:46,15.69927593,0.0003571,69.9991,169.5894,265.8556,94.2231,1.3631e-05,1.427e-05,0.0,0 STARLINK-6339,1 56771U 23078E   23237.95956121  .00001427  00000-0  13631-4 0  9993,2 56771  69.9991 169.5894 0003571 265.8556  94.2231 15.69927593 13917,6737.241,91.724,361.512,356.7,0.0
56771.0,STARLINK-6339,PAYLOAD,2023-08-26 05:08:46,15.69934639,0.000363,69.9986,168.873,262.7124,97.3659,2.0903e-05,2.302e-05,0.0,0 STARLINK-6339,1 56771U 23078E   23238.21442422  .00002302  00000-0  20903-4 0  9990,2 56771  69.9986 168.8730 0003630 262.7124  97.3659 15.69934639 13697,6737.221,91.724,361.532,356.64,0.0
56771.0,STARLINK-6339,PAYLOAD,2023-08-26 20:26:17,15.69934924,0.0003595,69.9985,167.0812,259.8101,100.2689,-2.2151e-05,-2.877e-05,0.0,0 STARLINK-6339,1 56771U 23078E   23238.85159096 -.00002877  00000-0 -22151-4 0  9998,2 56771  69.9985 167.0812 0003595 259.8101 100.2689 15.69934924 13795,6737.22,91.724,361.507,356.663,0.0
56771.0,STARLINK-6339,PAYLOAD,2023-08-26 23:29:48,15.69928119,0.0003547,70.0014,166.7235,273.9033,86.1758,2.6062e-05,2.923e-05,0.0,0 STARLINK-6339,1 56771U 23078E   23238.97902983  .00002923  00000-0  26062-4 0  9997,2 56771  70.0014 166.7235 0003547 273.9033  86.1758 15.69928119 14074,6737.24,91.724,361.494,356.715,0.0
56771.0,STARLINK-6339,PAYLOAD,2023-08-27 04:05:03,15.69926035,0.0003843,69.9988,166.1861,256.5545,103.5223,1.4272e-05,1.504e-05,0.0,0 STARLINK-6339,1 56771U 23078E   23239.17017799  .00001504  00000-0  14272-4 0  9996,2 56771  69.9988 166.1861 0003843 256.5545 103.5223 15.69926035 13844,6737.246,91.724,361.7,356.521,0.0
56771.0,STARLINK-6339,PAYLOAD,2023-08-27 20:54:19,15.69928969,0.0003788,69.9993,164.2172,265.7787,94.2976,1.1839e-05,1.211e-05,0.0,0 STARLINK-6339,1 56771U 23078E   23239.87106132  .00001211  00000-0  11839-4 0  9994,2 56771  69.9993 164.2172 0003788 265.7787  94.2976 15.69928969 13953,6737.237,91.724,361.654,356.55,0.0
56771.0,STARLINK-6339,PAYLOAD,2023-08-28 04:33:05,15.69924641,0.0003507,69.9982,163.3174,268.533,91.5464,1.8131e-05,1.968e-05,0.0,0 STARLINK-6339,1 56771U 23078E   23240.18964708  .00001968  00000-0  18131-4 0  9992,2 56771  69.9982 163.3174 0003507 268.5330  91.5464 15.69924641 14267,6737.25,91.724,361.477,356.752,0.0
56771.0,STARLINK-6339,PAYLOAD,2023-08-28 21:22:21,15.69930917,0.0003324,69.9982,161.3469,261.5003,98.5816,2.9696e-06,1.44e-06,0.0,0 STARLINK-6339,1 56771U 23078E   23240.89052760  .00000144  00000-0  29696-5 0  9990,2 56771  69.9982 161.3469 0003324 261.5003  98.5816 15.69930917 14114,6737.232,91.724,361.336,356.857,0.0
56771.0,STARLINK-6339,PAYLOAD,2023-08-29 05:01:07,15.69921258,0.0003335,69.9994,160.4535,261.2529,98.8289,-1.4129e-05,-1.911e-05,0.0,0 STARLINK-6339,1 56771U 23078E   23241.20911547 -.00001911  00000-0 -14129-4 0  9992,2 56771  69.9994 160.4535 0003335 261.2529  98.8289 15.69921258 14422,6737.259,91.724,361.371,356.877,0.0
56771.0,STARLINK-6339,PAYLOAD,2023-08-30 05:29:09,15.69926075,0.0003389,69.9976,157.5876,262.9651,97.1159,1.3336e-05,1.391e-05,0.0,0 STARLINK-6339,1 56771U 23078E   23242.22858252  .00001391  00000-0  13336-4 0  9997,2 56771  69.9976 157.5876 0003389 262.9651  97.1159 15.69926075 14587,6737.245,91.724,361.394,356.827,0.0
56771.0,STARLINK-6339,PAYLOAD,2023-08-31 04:25:26,15.6992495,0.0003202,69.9973,154.8998,269.3402,90.7427,1.4371e-05,1.516e-05,0.0,0 STARLINK-6339,1 56771U 23078E   23243.18433531  .00001516  00000-0  14371-4 0  9991,2 56771  69.9973 154.8998 0003202 269.3402  90.7427 15.69924950 14732,6737.249,91.724,361.271,356.956,0.0
56771.0,STARLINK-6339,PAYLOAD,2023-09-01 01:49:47,15.70033551,0.0004136,69.9965,152.3953,272.7517,87.3205,0.00012515,0.00014932,0.0,0 STARLINK-6339,1 56771U 23078E   23244.07624157  .00014932  00000-0  12515-3 0  9999,2 56771  69.9965 152.3953 0004136 272.7517  87.3205 15.70033551 14870,6736.938,91.718,361.589,356.017,0.0
56771.0,STARLINK-6339,PAYLOAD,2023-09-01 03:21:32,15.70030827,0.0004413,69.9961,152.2163,274.6671,85.402,0.00010975,0.00013065,0.0,0 STARLINK-6339,1 56771U 23078E   23244.13996219  .00013065  00000-0  10975-3 0  9991,2 56771  69.9961 152.2163 0004413 274.6671  85.4020 15.70030827 14886,6736.946,91.718,361.784,355.838,0.0
56771.0,STARLINK-6339,PAYLOAD,2023-09-01 23:14:23,15.69943444,0.0003793,69.9974,149.8849,298.8924,61.1891,-1.0452e-06,-3.39e-06,0.0,0 STARLINK-6339,1 56771U 23078E   23244.96832907 -.00000339  00000-0 -10452-5 0  9999,2 56771  69.9974 149.8849 0003793 298.8924  61.1891 15.69943444 15011,6737.196,91.723,361.616,356.505,0.0
56771.0,STARLINK-6339,PAYLOAD,2023-09-02 19:07:13,15.69901963,0.0003015,69.9987,147.5538,244.0173,116.0712,-7.5001e-05,-9.212e-05,0.0,0 STARLINK-6339,1 56771U 23078E   23245.79667981 -.00009212  00000-0 -75001-4 0  9998,2 56771  69.9987 147.5538 0003015 244.0173 116.0712 15.69901963 14887,6737.314,91.725,361.211,357.148,0.0
56771.0,STARLINK-6339,PAYLOAD,2023-09-03 02:45:59,15.69881948,0.0003278,69.9965,146.6594,265.3851,94.697,-1.729e-05,-2.287e-05,0.0,0 STARLINK-6339,1 56771U 23078E   23246.11527255 -.00002287  00000-0 -17290-4 0  9995,2 56771  69.9965 146.6594 0003278 265.3851  94.6970 15.69881948 15197,6737.372,91.727,361.445,357.028,0.0
56771.0,STARLINK-6339,PAYLOAD,2023-09-03 10:24:45,15.69879206,0.0003257,69.9981,145.7644,266.9139,93.1684,6.6691e-06,5.88e-06,0.0,0 STARLINK-6339,1 56771U 23078E   23246.43386158  .00000588  00000-0  66691-5 0  9995,2 56771  69.9981 145.7644 0003257 266.9139  93.1684 15.69879206 14980,6737.38,91.727,361.439,357.05,0.0
56771.0,STARLINK-6339,PAYLOAD,2023-09-04 00:10:35,15.69860455,0.0003114,69.998,144.1512,272.0146,88.0693,0.00016309,0.0001939,0.0,0 STARLINK-6339,1 56771U 23078E   23247.00734971  .00019390  00000-0  16309-3 0  9999,2 56771  69.9980 144.1512 0003114 272.0146  88.0693 15.69860455 15333,6737.433,91.728,361.396,357.2,0.0
56771.0,STARLINK-6339,PAYLOAD,2023-09-04 10:52:50,15.69887447,0.0003126,69.9981,142.8977,268.8776,91.2061,0.00015657,0.00018626,0.0,0 STARLINK-6339,1 56771U 23078E   23247.45336751  .00018626  00000-0  15657-3 0  9998,2 56771  69.9981 142.8977 0003126 268.8776  91.2061 15.69887447 15143,6737.356,91.726,361.327,357.115,0.0
